[{"OBJECT_NAME":"STARLINK-4722","OBJECT_ID":"2022-111C","EPOCH":"2026-03-09T19:51:28.821888","MEAN_MOTION":15.0883877,"ECCENTRICITY":0.00013489,"INCLINATION":53.2167,"RA_OF_ASC_NODE":273.7382,"ARG_OF_PERICENTER":87.8612,"MEAN_ANOMALY":272.2534,"EPHEMERIS_TYPE":0,"CLASSIFICATION_TYPE":"U","NORAD_CAT_ID":53775,"ELEMENT_SET_NO":999,"REV_AT_EPOCH":19371,"BSTAR":4.6218133e-5,"MEAN_MOTION_DOT":4.48e-6,"MEAN_MOTION_DDOT":0},{"OBJECT_NAME":"AISAT","OBJECT_ID":"2014-034B","EPOCH":"2026-03-09T16:29:04.722144","MEAN_MOTION":15.06703825,"ECCENTRICITY":0.00089151,"INCLINATION":98.2441,"RA_OF_ASC_NODE":333.9816,"ARG_OF_PERICENTER":189.0234,"MEAN_ANOMALY":171.0832,"EPHEMERIS_TYPE":0,"CLASSIFICATION_TYPE":"U","NORAD_CAT_ID":40054,"ELEMENT_SET_NO":999,"REV_AT_EPOCH":63221,"BSTAR":0.00094770343,"MEAN_MOTION_DOT":0.00014038,"MEAN_MOTION_DDOT":0}]
